start=new Date('2022-04-11T00:00:00.000Z').valueOf();
sats=[{"NORAD_CAT_ID":"46693","MEAN_MOTION_DOT":"-0.00000736","RCS_SIZE":"LARGE","PERIAPSIS":"545.790","PERIOD":"95.592","ELEMENT_SET_NO":"999","APOAPSIS":"548.638","MEAN_MOTION":"15.06399938","GP_ID":"200940945","REF_FRAME":"TEME","CENTER_NAME":"EARTH","RA_OF_ASC_NODE":"176.5724","REV_AT_EPOCH":"8174","BSTAR":"-0.00003049700000","TLE_LINE1":"1 46693U 20073Z   22100.70728104 -.00000736  00000-0 -30497-4 0  9999","DECAY_DATE":null,"TIME_SYSTEM":"UTC","SEMIMAJOR_AXIS":"6925.349","COUNTRY_CODE":"US","SITE":"AFETR","MEAN_MOTION_DDOT":"0.0000000000000","EPHEMERIS_TYPE":"0","CLASSIFICATION_TYPE":"U","OBJECT_TYPE":"PAYLOAD","MEAN_ELEMENT_THEORY":"SGP4","MEAN_ANOMALY":"320.4322","INCLINATION":"53.0548","FILE":"3396586","OBJECT_ID":"2020-073Z","OBJECT_NAME":"STARLINK-1792","TLE_LINE2":"2 46693  53.0548 176.5724 0002056  39.6817 320.4322 15.06399938 81743","EPOCH":"2022-04-10T16:58:29.081856","ARG_OF_PERICENTER":"39.6817","LAUNCH_DATE":"2020-10-18","ECCENTRICITY":"0.00020560"},{"TLE_LINE2":"2 46694  53.0550 155.8777 0001488 112.9663 247.1483 15.06397494 82050","OBJECT_NAME":"STARLINK-1793","EPOCH":"2022-04-10T20:44:05.064864","ARG_OF_PERICENTER":"112.9663","LAUNCH_DATE":"2020-10-18","ECCENTRICITY":"0.00014880","INCLINATION":"53.0550","OBJECT_TYPE":"PAYLOAD","MEAN_ELEMENT_THEORY":"SGP4","MEAN_ANOMALY":"247.1483","FILE":"3396586","OBJECT_ID":"2020-073AA","CLASSIFICATION_TYPE":"U","EPHEMERIS_TYPE":"0","MEAN_MOTION_DDOT":"0.0000000000000","SITE":"AFETR","SEMIMAJOR_AXIS":"6925.356","COUNTRY_CODE":"US","DECAY_DATE":null,"TIME_SYSTEM":"UTC","RA_OF_ASC_NODE":"155.8777","REV_AT_EPOCH":"8205","BSTAR":"0.00003813400000","TLE_LINE1":"1 46694U 20073AA  22100.86394751  .00000287  00000-0  38134-4 0  9999","CENTER_NAME":"EARTH","REF_FRAME":"TEME","GP_ID":"200941196","APOAPSIS":"548.252","MEAN_MOTION":"15.06397494","PERIAPSIS":"546.191","PERIOD":"95.592","ELEMENT_SET_NO":"999","MEAN_MOTION_DOT":"0.00000287","RCS_SIZE":"LARGE","NORAD_CAT_ID":"46694"},{"MEAN_ELEMENT_THEORY":"SGP4","OBJECT_TYPE":"PAYLOAD","INCLINATION":"53.0541","MEAN_ANOMALY":"315.5880","OBJECT_ID":"2020-073AC","FILE":"3396223","ARG_OF_PERICENTER":"44.5270","EPOCH":"2022-04-10T11:37:23.469888","TLE_LINE2":"2 46696  53.0541 157.5687 0002009  44.5270 315.5880 15.06394415 81998","OBJECT_NAME":"STARLINK-1795","ECCENTRICITY":"0.00020090","LAUNCH_DATE":"2020-10-18","EPHEMERIS_TYPE":"0","MEAN_MOTION_DDOT":"0.0000000000000","CLASSIFICATION_TYPE":"U","SEMIMAJOR_AXIS":"6925.366","COUNTRY_CODE":"US","SITE":"AFETR","REV_AT_EPOCH":"8199","RA_OF_ASC_NODE":"157.5687","TLE_LINE1":"1 46696U 20073AC  22100.48429942  .00001083  00000-0  91592-4 0  9992","BSTAR":"0.00009159200000","TIME_SYSTEM":"UTC","DECAY_DATE":null,"REF_FRAME":"TEME","CENTER_NAME":"EARTH","MEAN_MOTION":"15.06394415","APOAPSIS":"548.622","GP_ID":"200907572","ELEMENT_SET_NO":"999","PERIAPSIS":"545.839","PERIOD":"95.592","NORAD_CAT_ID":"46696","MEAN_MOTION_DOT":"0.00001083","RCS_SIZE":"LARGE"},{"MEAN_ELEMENT_THEORY":"SGP4","OBJECT_TYPE":"PAYLOAD","INCLINATION":"53.0536","MEAN_ANOMALY":"295.0325","FILE":"3396223","OBJECT_ID":"2020-073AE","ARG_OF_PERICENTER":"65.0820","OBJECT_NAME":"STARLINK-1797","TLE_LINE2":"2 46698  53.0536 177.6078 0001507  65.0820 295.0325 15.06397558 81719","EPOCH":"2022-04-10T11:24:06.961248","ECCENTRICITY":"0.00015070","LAUNCH_DATE":"2020-10-18","MEAN_MOTION_DDOT":"0.0000000000000","EPHEMERIS_TYPE":"0","CLASSIFICATION_TYPE":"U","SEMIMAJOR_AXIS":"6925.356","COUNTRY_CODE":"US","SITE":"AFETR","RA_OF_ASC_NODE":"177.6078","REV_AT_EPOCH":"8171","BSTAR":"0.00002996000000","TLE_LINE1":"1 46698U 20073AE  22100.47508057  .00000165  00000-0  29960-4 0  9998","TIME_SYSTEM":"UTC","DECAY_DATE":null,"REF_FRAME":"TEME","CENTER_NAME":"EARTH","MEAN_MOTION":"15.06397558","APOAPSIS":"548.265","GP_ID":"200907822","ELEMENT_SET_NO":"999","PERIOD":"95.592","PERIAPSIS":"546.177","NORAD_CAT_ID":"46698","MEAN_MOTION_DOT":"0.00000165","RCS_SIZE":"LARGE"},{"CENTER_NAME":"EARTH","REF_FRAME":"TEME","GP_ID":"200908074","MEAN_MOTION":"15.06393808","APOAPSIS":"548.372","ELEMENT_SET_NO":"999","PERIOD":"95.593","PERIAPSIS":"546.093","RCS_SIZE":"LARGE","MEAN_MOTION_DOT":"0.00000793","NORAD_CAT_ID":"46699","ECCENTRICITY":"0.00016450","LAUNCH_DATE":"2020-10-18","ARG_OF_PERICENTER":"51.9399","TLE_LINE2":"2 46699  53.0534 177.6075 0001645  51.9399 308.1738 15.06393808 81711","OBJECT_NAME":"STARLINK-1799","EPOCH":"2022-04-10T11:29:25.501632","OBJECT_ID":"2020-073AF","FILE":"3396223","MEAN_ELEMENT_THEORY":"SGP4","OBJECT_TYPE":"PAYLOAD","INCLINATION":"53.0534","MEAN_ANOMALY":"308.1738","CLASSIFICATION_TYPE":"U","MEAN_MOTION_DDOT":"0.0000000000000","EPHEMERIS_TYPE":"0","SITE":"AFETR","COUNTRY_CODE":"US","SEMIMAJOR_AXIS":"6925.368","TIME_SYSTEM":"UTC","DECAY_DATE":null,"TLE_LINE1":"1 46699U 20073AF  22100.47876738  .00000793  00000-0  72151-4 0  9990","BSTAR":"0.00007215100000","RA_OF_ASC_NODE":"177.6075","REV_AT_EPOCH":"8171"},{"MEAN_MOTION_DOT":"0.00004091","RCS_SIZE":"LARGE","NORAD_CAT_ID":"46700","PERIAPSIS":"545.931","PERIOD":"95.592","ELEMENT_SET_NO":"999","GP_ID":"200908824","APOAPSIS":"548.460","MEAN_MOTION":"15.06405981","CENTER_NAME":"EARTH","REF_FRAME":"TEME","DECAY_DATE":null,"TIME_SYSTEM":"UTC","REV_AT_EPOCH":"8150","RA_OF_ASC_NODE":"192.5746","TLE_LINE1":"1 46700U 20073AG  22100.48291040  .00004091  00000-0  29332-3 0  9998","BSTAR":"0.00029332000000","SITE":"AFETR","SEMIMAJOR_AXIS":"6925.330","COUNTRY_CODE":"US","CLASSIFICATION_TYPE":"U","EPHEMERIS_TYPE":"0","MEAN_MOTION_DDOT":"0.0000000000000","TLE_LINE2":"2 46700  53.0575 192.5746 0001826  75.4357 284.6834 15.06405981 81504","EPOCH":"2022-04-10T11:35:23.458560","OBJECT_NAME":"STARLINK-1800","ARG_OF_PERICENTER":"75.4357","LAUNCH_DATE":"2020-10-18","ECCENTRICITY":"0.00018260","MEAN_ELEMENT_THEORY":"SGP4","OBJECT_TYPE":"PAYLOAD","INCLINATION":"53.0575","MEAN_ANOMALY":"284.6834","FILE":"3396223","OBJECT_ID":"2020-073AG"},{"REF_FRAME":"TEME","CENTER_NAME":"EARTH","MEAN_MOTION":"15.06413208","APOAPSIS":"548.324","GP_ID":"200941948","ELEMENT_SET_NO":"999","PERIOD":"95.591","PERIAPSIS":"546.022","NORAD_CAT_ID":"46701","RCS_SIZE":"LARGE","MEAN_MOTION_DOT":"0.00010354","OBJECT_ID":"2020-073AH","FILE":"3396586","MEAN_ELEMENT_THEORY":"SGP4","OBJECT_TYPE":"PAYLOAD","INCLINATION":"53.0544","MEAN_ANOMALY":"308.8004","ECCENTRICITY":"0.00016620","LAUNCH_DATE":"2020-10-18","ARG_OF_PERICENTER":"51.3133","EPOCH":"2022-04-10T15:33:34.046208","TLE_LINE2":"2 46701  53.0544 176.8399 0001662  51.3133 308.8004 15.06413208 81748","OBJECT_NAME":"STARLINK-1801","MEAN_MOTION_DDOT":"0.0000000000000","EPHEMERIS_TYPE":"0","CLASSIFICATION_TYPE":"U","COUNTRY_CODE":"US","SEMIMAJOR_AXIS":"6925.308","SITE":"AFETR","TLE_LINE1":"1 46701U 20073AH  22100.64831072  .00010354  00000-0  71275-3 0  9994","BSTAR":"0.00071275000000","REV_AT_EPOCH":"8174","RA_OF_ASC_NODE":"176.8399","TIME_SYSTEM":"UTC","DECAY_DATE":null},{"CLASSIFICATION_TYPE":"U","MEAN_MOTION_DDOT":"0.0000000000000","EPHEMERIS_TYPE":"0","ARG_OF_PERICENTER":"50.1118","OBJECT_NAME":"STARLINK-1802","TLE_LINE2":"2 46702  53.0533 155.8925 0001795  50.1118 310.0028 15.06413236 82053","EPOCH":"2022-04-10T20:38:45.342528","ECCENTRICITY":"0.00017950","LAUNCH_DATE":"2020-10-18","MEAN_ELEMENT_THEORY":"SGP4","OBJECT_TYPE":"PAYLOAD","INCLINATION":"53.0533","MEAN_ANOMALY":"310.0028","OBJECT_ID":"2020-073AJ","FILE":"3396586","TIME_SYSTEM":"UTC","DECAY_DATE":null,"RA_OF_ASC_NODE":"155.8925","REV_AT_EPOCH":"8205","BSTAR":"0.00012981000000","TLE_LINE1":"1 46702U 20073AJ  22100.86024702  .00001653  00000-0  12981-3 0  9994","SITE":"AFETR","SEMIMAJOR_AXIS":"6925.308","COUNTRY_CODE":"US","GP_ID":"200940696","MEAN_MOTION":"15.06413236","APOAPSIS":"548.416","CENTER_NAME":"EARTH","REF_FRAME":"TEME","MEAN_MOTION_DOT":"0.00001653","RCS_SIZE":"LARGE","NORAD_CAT_ID":"46702","ELEMENT_SET_NO":"999","PERIAPSIS":"545.930","PERIOD":"95.591"},{"RCS_SIZE":"LARGE","MEAN_MOTION_DOT":"0.00004632","NORAD_CAT_ID":"46703","ELEMENT_SET_NO":"999","PERIOD":"95.592","PERIAPSIS":"546.074","GP_ID":"200940946","MEAN_MOTION":"15.06403525","APOAPSIS":"548.332","CENTER_NAME":"EARTH","REF_FRAME":"TEME","TIME_SYSTEM":"UTC","DECAY_DATE":null,"BSTAR":"0.00032962000000","TLE_LINE1":"1 46703U 20073AK  22100.69255014  .00004632  00000-0  32962-3 0  9999","RA_OF_ASC_NODE":"176.6282","REV_AT_EPOCH":"8174","SITE":"AFETR","COUNTRY_CODE":"US","SEMIMAJOR_AXIS":"6925.338","CLASSIFICATION_TYPE":"U","MEAN_MOTION_DDOT":"0.0000000000000","EPHEMERIS_TYPE":"0","ECCENTRICITY":"0.00016300","LAUNCH_DATE":"2020-10-18","ARG_OF_PERICENTER":"55.4791","EPOCH":"2022-04-10T16:37:16.332096","TLE_LINE2":"2 46703  53.0531 176.6282 0001630  55.4791 304.6352 15.06403525 81746","OBJECT_NAME":"STARLINK-1803","OBJECT_ID":"2020-073AK","FILE":"3396586","OBJECT_TYPE":"PAYLOAD","MEAN_ELEMENT_THEORY":"SGP4","MEAN_ANOMALY":"304.6352","INCLINATION":"53.0531"},{"NORAD_CAT_ID":"46704","RCS_SIZE":"LARGE","MEAN_MOTION_DOT":"0.00001153","ELEMENT_SET_NO":"999","PERIAPSIS":"546.167","PERIOD":"95.592","MEAN_MOTION":"15.06406403","APOAPSIS":"548.221","GP_ID":"200941197","REF_FRAME":"TEME","CENTER_NAME":"EARTH","BSTAR":"0.00009627100000","TLE_LINE1":"1 46704U 20073AL  22100.87131376  .00001153  00000-0  96271-4 0  9993","RA_OF_ASC_NODE":"155.8374","REV_AT_EPOCH":"8205","TIME_SYSTEM":"UTC","DECAY_DATE":null,"COUNTRY_CODE":"US","SEMIMAJOR_AXIS":"6925.329","SITE":"AFETR","EPHEMERIS_TYPE":"0","MEAN_MOTION_DDOT":"0.0000000000000","CLASSIFICATION_TYPE":"U","OBJECT_ID":"2020-073AL","FILE":"3396586","INCLINATION":"53.0540","OBJECT_TYPE":"PAYLOAD","MEAN_ELEMENT_THEORY":"SGP4","MEAN_ANOMALY":"293.2012","ECCENTRICITY":"0.00014830","LAUNCH_DATE":"2020-10-18","ARG_OF_PERICENTER":"66.9133","TLE_LINE2":"2 46704  53.0540 155.8374 0001483  66.9133 293.2012 15.06406403 82050","OBJECT_NAME":"STARLINK-1804","EPOCH":"2022-04-10T20:54:41.508864"}];
